{
"type": "FeatureCollection",
"name": "elizabeth_street_catchment",
"crs": { "type": "name", "properties": { "name": "urn:ogc:def:crs:OGC:1.3:CRS84" } },
"features": [
{ "type": "Feature", "properties": { "OBJECTID": 579, "SUB_CATCHMENT_NBR": "4401", "SUB_CATCHMENT_NAME": "ELIZABETH ST DRAIN (CITY)", "MAJOR_CATCHMENT_NBR": "4400", "MAJOR_CATCHMENT_NAME": "YARRA RIVER MAIN STREAM", "PRIMARY_CATCHMENT_NAME": "YARRA RIVER", "RIVER_BASIN_CATCHMENT_NAME": "Yarra", "AWR_DIVISION": "DIV 2 - SOUTHEAST COAST", "AWR_RIVER_BASIN": "29 YARRA RIVER", "AREA_SQ_KM": 3.12, "DATE_CAPTURED": "Fri, 23 Aug 2002 00:00:00 GMT", "DATE_LAST_UPDATED": "Wed, 20 Nov 2013 00:00:00 GMT" }, "geometry": { "type": "Polygon", "coordinates": [ [ [ 144.953695745665669, -37.804568284856799 ], [ 144.953870871426574, -37.804589166711189 ], [ 144.954067907897354, -37.803541219811287 ], [ 144.955520531549837, -37.803709704141426 ], [ 144.955760040924076, -37.802428050328089 ], [ 144.956719522659995, -37.8016772334582 ], [ 144.958954861714602, -37.800771032731895 ], [ 144.959834361999185, -37.799868338325354 ], [ 144.960355623911084, -37.797781377538783 ], [ 144.960562152475802, -37.797085509777524 ], [ 144.96151282594181, -37.795574148355428 ], [ 144.962078285921024, -37.795065320261457 ], [ 144.964734730637957, -37.793034005867881 ], [ 144.964388412093712, -37.79348888323355 ], [ 144.964725482043235, -37.795032619967735 ], [ 144.964783967431288, -37.795975898507685 ], [ 144.964477215714766, -37.796745722990444 ], [ 144.964560431344808, -37.797306590277181 ], [ 144.964961855530959, -37.797854126586543 ], [ 144.966003822287377, -37.798641400573175 ], [ 144.966989265894114, -37.799280919304437 ], [ 144.967245135141951, -37.799761964958272 ], [ 144.96802598715982, -37.800162055512118 ], [ 144.968715158661809, -37.800647780147514 ], [ 144.969028704395924, -37.800914300040517 ], [ 144.96911395924792, -37.801289322323804 ], [ 144.969546097353486, -37.802091906306899 ], [ 144.970193443195484, -37.80305614342403 ], [ 144.970716214773717, -37.803713330216603 ], [ 144.971605005961976, -37.80429870585958 ], [ 144.972487992946895, -37.804771435804312 ], [ 144.97294142693201, -37.804886549796805 ], [ 144.973268199549551, -37.804985788748446 ], [ 144.973464975199022, -37.80530082984523 ], [ 144.973685236526563, -37.805490136800621 ], [ 144.97404008460606, -37.805727349551027 ], [ 144.974346579044351, -37.805828579738929 ], [ 144.974684426782915, -37.805944222032799 ], [ 144.975505812084947, -37.806564988164432 ], [ 144.976837570400818, -37.807991723627495 ], [ 144.976786261611011, -37.808306822308758 ], [ 144.975873754756122, -37.80820941708248 ], [ 144.975655007895284, -37.809531474778581 ], [ 144.975490000070323, -37.810500995619208 ], [ 144.973887800670269, -37.813176069960527 ], [ 144.974867406644677, -37.815289813199847 ], [ 144.974944066197821, -37.815418715819753 ], [ 144.974599219216174, -37.815499189396704 ], [ 144.974135201955391, -37.815645546902338 ], [ 144.974125436354115, -37.815653304735598 ], [ 144.973399317515856, -37.815868491765528 ], [ 144.973306850575483, -37.815886095302048 ], [ 144.973233822339381, -37.815901956151279 ], [ 144.973162295745368, -37.815921267275989 ], [ 144.973112498770291, -37.815936897115506 ], [ 144.967337544364625, -37.817638976679817 ], [ 144.966075296395275, -37.818007672283464 ], [ 144.965482629819803, -37.819112772953183 ], [ 144.964010868896565, -37.818111828413656 ], [ 144.963620159487988, -37.817508430536229 ], [ 144.962222462977621, -37.817913843945945 ], [ 144.962051627873279, -37.817960623062724 ], [ 144.962031935621695, -37.817917034824802 ], [ 144.961581673444329, -37.81693201976406 ], [ 144.960681828592186, -37.814965785662935 ], [ 144.960233548848407, -37.813991703979354 ], [ 144.959945894580557, -37.814069881014824 ], [ 144.958712664775788, -37.814423230260253 ], [ 144.957920614832233, -37.814647001185257 ], [ 144.957904674996882, -37.81460689731 ], [ 144.957050941452906, -37.812745949678458 ], [ 144.957007197591338, -37.812650950319806 ], [ 144.956634596634615, -37.811845570635668 ], [ 144.956315861382251, -37.811936987484529 ], [ 144.954815444053992, -37.808688077161946 ], [ 144.954708589913679, -37.80842970615528 ], [ 144.954509881764864, -37.808003959264106 ], [ 144.954114149202326, -37.807135731862012 ], [ 144.953621762656383, -37.807377292783983 ], [ 144.953423639610321, -37.807473501540656 ], [ 144.953228403831048, -37.807251433467044 ], [ 144.953492108175027, -37.805739825043936 ], [ 144.95354039701931, -37.805469734811858 ], [ 144.953588876453551, -37.805196223389522 ], [ 144.953636551036368, -37.804928195117405 ], [ 144.953640970256373, -37.804883312255946 ], [ 144.953691385340875, -37.804604247106134 ], [ 144.953695745665669, -37.804568284856799 ] ] ] } }
]
}
